{
  "type": "FeatureCollection",
  "features": [
    {
      "type": "Feature",
      "properties": {
        "norad_id": 38250,
        "name": "BEIDOU-2 M3 (C11)",
        "group": "beidou",
        "lat": 48.049339084037136,
        "lon": 82.6631719275512,
        "alt_km": 21585.77017703314,
        "timestamp": "2025-12-02T07:10:09.380326+00:00",
        "meta_object_name": "BEIDOU-2 M3 (C11)",
        "meta_object_id": "2012-018A",
        "meta_epoch": "2025-12-01T01:13:35.126400",
        "meta_mean_motion": 1.86229725,
        "meta_eccentricity": 0.00245382,
        "meta_inclination": 55.9302,
        "meta_ra_of_asc_node": 311.5507,
        "meta_arg_of_pericenter": 273.3676,
        "meta_mean_anomaly": 86.348,
        "meta_ephemeris_type": 0,
        "meta_classification_type": "U",
        "meta_norad_cat_id": 38250,
        "meta_element_set_no": 999,
        "meta_rev_at_epoch": 9225,
        "meta_bstar": 0,
        "meta_mean_motion_dot": -5.3e-07,
        "meta_mean_motion_ddot": 0,
        "tle_line1": "1 38250U 12018A   25335.05110100 -.00000053  00000+0  00000+0 0  9993",
        "tle_line2": "2 38250  55.9302 311.5507 0024538 273.3676  86.3480  1.86229725 92251"
      },
      "geometry": {
        "type": "Point",
        "coordinates": [
          82.6631719275512,
          48.049339084037136
        ]
      }
    },
    {
      "type": "Feature",
      "properties": {
        "norad_id": 38251,
        "name": "BEIDOU-2 M4 (C12)",
        "group": "beidou",
        "lat": 15.029132378189649,
        "lon": 120.2162215084258,
        "alt_km": 21544.806003270332,
        "timestamp": "2025-12-02T07:10:09.380337+00:00",
        "meta_object_name": "BEIDOU-2 M4 (C12)",
        "meta_object_id": "2012-018B",
        "meta_epoch": "2025-11-30T23:35:43.237248",
        "meta_mean_motion": 1.86229405,
        "meta_eccentricity": 0.00156645,
        "meta_inclination": 55.8317,
        "meta_ra_of_asc_node": 310.7829,
        "meta_arg_of_pericenter": 276.4205,
        "meta_mean_anomaly": 83.3972,
        "meta_ephemeris_type": 0,
        "meta_classification_type": "U",
        "meta_norad_cat_id": 38251,
        "meta_element_set_no": 999,
        "meta_rev_at_epoch": 9225,
        "meta_bstar": 0,
        "meta_mean_motion_dot": -5.3e-07,
        "meta_mean_motion_ddot": 0,
        "tle_line1": "1 38251U 12018B   25334.98313932 -.00000053  00000+0  00000+0 0  9993",
        "tle_line2": "2 38251  55.8317 310.7829 0015664 276.4205  83.3972  1.86229405 92255"
      },
      "geometry": {
        "type": "Point",
        "coordinates": [
          120.2162215084258,
          15.029132378189649
        ]
      }
    },
    {
      "type": "Feature",
      "properties": {
        "norad_id": 38775,
        "name": "BEIDOU-2 M6 (C14)",
        "group": "beidou",
        "lat": -3.493961126621055,
        "lon": 67.08679354133474,
        "alt_km": 21498.976130180487,
        "timestamp": "2025-12-02T07:10:09.380349+00:00",
        "meta_object_name": "BEIDOU-2 M6 (C14)",
        "meta_object_id": "2012-050B",
        "meta_epoch": "2025-11-30T03:46:17.715072",
        "meta_mean_motion": 1.86230748,
        "meta_eccentricity": 0.00108176,
        "meta_inclination": 56.3677,
        "meta_ra_of_asc_node": 69.4852,
        "meta_arg_of_pericenter": 346.8684,
        "meta_mean_anomaly": 13.1099,
        "meta_ephemeris_type": 0,
        "meta_classification_type": "U",
        "meta_norad_cat_id": 38775,
        "meta_element_set_no": 999,
        "meta_rev_at_epoch": 8960,
        "meta_bstar": 0,
        "meta_mean_motion_dot": -3.1e-07,
        "meta_mean_motion_ddot": 0,
        "tle_line1": "1 38775U 12050B   25334.15714948 -.00000031  00000+0  00000+0 0  9997",
        "tle_line2": "2 38775  56.3677  69.4852 0010817 346.8684  13.1099  1.86230748 89601"
      },
      "geometry": {
        "type": "Point",
        "coordinates": [
          67.08679354133474,
          -3.493961126621055
        ]
      }
    },
    {
      "type": "Feature",
      "properties": {
        "norad_id": 38953,
        "name": "BEIDOU-2 G6 (C02)",
        "group": "beidou",
        "lat": -0.5174116676732808,
        "lon": -97.12293553933965,
        "alt_km": 35793.704301384714,
        "timestamp": "2025-12-02T07:10:09.380360+00:00",
        "meta_object_name": "BEIDOU-2 G6 (C02)",
        "meta_object_id": "2012-059A",
        "meta_epoch": "2025-12-01T19:21:04.956768",
        "meta_mean_motion": 1.00271055,
        "meta_eccentricity": 0.0007266,
        "meta_inclination": 3.919,
        "meta_ra_of_asc_node": 75.6094,
        "meta_arg_of_pericenter": 290.8925,
        "meta_mean_anomaly": 78.7424,
        "meta_ephemeris_type": 0,
        "meta_classification_type": "U",
        "meta_norad_cat_id": 38953,
        "meta_element_set_no": 999,
        "meta_rev_at_epoch": 4793,
        "meta_bstar": 0,
        "meta_mean_motion_dot": -1.55e-06,
        "meta_mean_motion_ddot": 0,
        "tle_line1": "1 38953U 12059A   25335.80630737 -.00000155  00000+0  00000+0 0  9997",
        "tle_line2": "2 38953   3.9190  75.6094 0007266 290.8925  78.7424  1.00271055 47935"
      },
      "geometry": {
        "type": "Point",
        "coordinates": [
          -97.12293553933965,
          -0.5174116676732808
        ]
      }
    },
    {
      "type": "Feature",
      "properties": {
        "norad_id": 40748,
        "name": "BEIDOU-3S M2S (C58)",
        "group": "beidou",
        "lat": 19.88704558076922,
        "lon": -36.54445544147215,
        "alt_km": 21541.95304454946,
        "timestamp": "2025-12-02T07:10:09.380378+00:00",
        "meta_object_name": "BEIDOU-3S M2S (C58)",
        "meta_object_id": "2015-037A",
        "meta_epoch": "2025-12-01T04:31:01.292160",
        "meta_mean_motion": 1.86229002,
        "meta_eccentricity": 0.0012493,
        "meta_inclination": 55.0491,
        "meta_ra_of_asc_node": 308.8604,
        "meta_arg_of_pericenter": 267.0141,
        "meta_mean_anomaly": 92.8367,
        "meta_ephemeris_type": 0,
        "meta_classification_type": "U",
        "meta_norad_cat_id": 40748,
        "meta_element_set_no": 999,
        "meta_rev_at_epoch": 7043,
        "meta_bstar": 0,
        "meta_mean_motion_dot": -5.6e-07,
        "meta_mean_motion_ddot": 0,
        "tle_line1": "1 40748U 15037A   25335.18820940 -.00000056  00000+0  00000+0 0  9999",
        "tle_line2": "2 40748  55.0491 308.8604 0012493 267.0141  92.8367  1.86229002 70437"
      },
      "geometry": {
        "type": "Point",
        "coordinates": [
          -36.54445544147215,
          19.88704558076922
        ]
      }
    },
    {
      "type": "Feature",
      "properties": {
        "norad_id": 40749,
        "name": "BEIDOU-3S M1S (C57)",
        "group": "beidou",
        "lat": -38.401569988386726,
        "lon": 162.4559389171117,
        "alt_km": 21535.633748597676,
        "timestamp": "2025-12-02T07:10:09.380403+00:00",
        "meta_object_name": "BEIDOU-3S M1S (C57)",
        "meta_object_id": "2015-037B",
        "meta_epoch": "2025-11-26T01:13:29.678016",
        "meta_mean_motion": 1.8625392,
        "meta_eccentricity": 0.00032681,
        "meta_inclination": 55.0504,
        "meta_ra_of_asc_node": 309.0266,
        "meta_arg_of_pericenter": 354.4635,
        "meta_mean_anomaly": 5.5327,
        "meta_ephemeris_type": 0,
        "meta_classification_type": "U",
        "meta_norad_cat_id": 40749,
        "meta_element_set_no": 999,
        "meta_rev_at_epoch": 7034,
        "meta_bstar": 0,
        "meta_mean_motion_dot": -4e-07,
        "meta_mean_motion_ddot": 0,
        "tle_line1": "1 40749U 15037B   25330.05103794 -.00000040  00000+0  00000+0 0  9995",
        "tle_line2": "2 40749  55.0504 309.0266 0003268 354.4635   5.5327  1.86253920 70342"
      },
      "geometry": {
        "type": "Point",
        "coordinates": [
          162.4559389171117,
          -38.401569988386726
        ]
      }
    },
    {
      "type": "Feature",
      "properties": {
        "norad_id": 40938,
        "name": "BEIDOU-3S IGSO-2S (C56)",
        "group": "beidou",
        "lat": 10.515502509787297,
        "lon": -89.80439752073671,
        "alt_km": 36041.896838423585,
        "timestamp": "2025-12-02T07:10:09.380423+00:00",
        "meta_object_name": "BEIDOU-3S IGSO-2S (C56)",
        "meta_object_id": "2015-053A",
        "meta_epoch": "2025-11-30T14:22:32.938176",
        "meta_mean_motion": 1.00272475,
        "meta_eccentricity": 0.0061056,
        "meta_inclination": 49.5325,
        "meta_ra_of_asc_node": 261.1514,
        "meta_arg_of_pericenter": 188.8099,
        "meta_mean_anomaly": 291.5463,
        "meta_ephemeris_type": 0,
        "meta_classification_type": "U",
        "meta_norad_cat_id": 40938,
        "meta_element_set_no": 999,
        "meta_rev_at_epoch": 3736,
        "meta_bstar": 0,
        "meta_mean_motion_dot": -1.61e-06,
        "meta_mean_motion_ddot": 0,
        "tle_line1": "1 40938U 15053A   25334.59899234 -.00000161  00000+0  00000+0 0  9991",
        "tle_line2": "2 40938  49.5325 261.1514 0061056 188.8099 291.5463  1.00272475 37362"
      },
      "geometry": {
        "type": "Point",
        "coordinates": [
          -89.80439752073671,
          10.515502509787297
        ]
      }
    }
  ]
}